GAOFEN-13 01            
1 46610U 20071A   26095.83978716 -.00000361  00000+0  00000+0 0  9997
2 46610   0.3338  85.0318 0042559 120.9555  48.6565  1.00267789 20199
ATLAS 5 CENTAUR DEB     
1 46657U 18079CK  26095.53222316 -.00000185  00000+0  00000+0 0  9992
2 46657  12.0948  28.1491 5832040 329.6283   6.8227  1.70483751 34091
ATLAS 5 CENTAUR DEB     
1 46846U 18079DB  26094.00937367 -.00000107  00000+0  00000+0 0  9996
2 46846  12.3311  69.1829 4763130 255.1287  49.2001  1.71841127 34027
ATLAS 5 CENTAUR DEB     
1 46847U 18079DC  26087.88661944 -.00000132  00000+0  00000+0 0  9998
2 46847  13.4861  48.3172 4707747 282.7129  30.2832  1.77285452 35014
ATLAS 5 CENTAUR DEB     
1 46857U 18079DN  26094.20932194 -.00000085  00000+0  00000+0 0  9998
2 46857  12.4914  79.6004 4639593 225.7579  85.3869  1.69095598 33473
TIANTONG-1 2            
1 46916U 20082A   26095.84100050 -.00000354  00000+0  00000+0 0  9999
2 46916   0.8969 318.2386 0002672  55.2319 248.3866  1.00274067 19928
ATLAS 5 CENTAUR DEB     
1 47096U 14055DE  26086.27106842 -.00000014  00000+0  00000+0 0  9997
2 47096  19.2862 174.2531 4879245 111.0112 306.5571  1.79154227 35659
LUCAS (JDRS-1)          
1 47202U 20089A   26095.88358310 -.00000234  00000+0  00000+0 0  9990
2 47202   0.0262 266.7025 0002696 106.0440 230.3043  1.00272248 19699
SXM-7                   
1 47240U 20096A   26095.58548693 -.00000203  00000+0  00000+0 0  9998
2 47240   0.0236 124.6334 0004599 358.6240 196.2405  1.00268657  6714
BREEZE-M DEB [TANK]     
1 47243U 20097B   26095.10478791  .00001148  00000+0  13005-2 0  9991
2 47243  58.2956 123.3417 7306035 105.7707 339.3382  2.20480257 42590
CMS-01                  
1 47256U 20099A   26095.88358310 -.00000163  00000+0  00000+0 0  9991
2 47256   0.1018  90.9946 0005264 203.8873 300.3755  1.00272590 19471
TURKSAT 5A              
1 47306U 21001A   26095.82243562  .00000156  00000+0  00000+0 0  9998
2 47306   0.0179 156.8384 0000153 285.0681  79.2000  1.00271080 19246
FALCON 9 R/B            
1 47307U 21001B   26091.65740684  .00000955  00000+0  24177-2 0  9994
2 47307  15.8647 209.1725 7779861 353.5023   0.3362  1.65166556 28898
TIANTONG-1 3            
1 47321U 21003A   26095.88358311 -.00000154  00000+0  00000+0 0  9991
2 47321   1.8202 334.9682 0003289  44.5597 214.2627  1.00273740 19236
TJS-6                   
1 47613U 21010A   26095.85166056  .00000045  00000+0  00000+0 0  9991
2 47613   0.4138  89.1206 0003532 306.1945 283.9295  1.00274456 19081
ARKTIKA-M 1             
1 47719U 21016A   26086.24697042 -.00000098  00000+0  00000+0 0  9990
2 47719  63.2179  69.3783 7253959 269.5617  15.0995  2.00616454 37142
FREGAT R/B              
1 47720U 21016B   26086.04366374  .00001495  00000+0  00000+0 0  9992
2 47720  63.2310  62.0599 7376145 267.2526  14.8955  1.98933595 36802
