[{"OBJECT_NAME":"GAOFEN-13 01","OBJECT_ID":"2020-071A","EPOCH":"2026-04-05T20:09:17.610624","MEAN_MOTION":1.00267789,"ECCENTRICITY":0.0042559,"INCLINATION":0.3338,"RA_OF_ASC_NODE":85.0318,"ARG_OF_PERICENTER":120.9555,"MEAN_ANOMALY":48.6565,"EPHEMERIS_TYPE":0,"CLASSIFICATION_TYPE":"U","NORAD_CAT_ID":46610,"ELEMENT_SET_NO":999,"REV_AT_EPOCH":2019,"BSTAR":0,"MEAN_MOTION_DOT":-3.61e-6,"MEAN_MOTION_DDOT":0},{"OBJECT_NAME":"ATLAS 5 CENTAUR DEB","OBJECT_ID":"2018-079CK","EPOCH":"2026-04-05T12:46:24.081024","MEAN_MOTION":1.70483751,"ECCENTRICITY":0.583204,"INCLINATION":12.0948,"RA_OF_ASC_NODE":28.1491,"ARG_OF_PERICENTER":329.6283,"MEAN_ANOMALY":6.8227,"EPHEMERIS_TYPE":0,"CLASSIFICATION_TYPE":"U","NORAD_CAT_ID":46657,"ELEMENT_SET_NO":999,"REV_AT_EPOCH":3409,"BSTAR":0,"MEAN_MOTION_DOT":-1.85e-6,"MEAN_MOTION_DDOT":0},{"OBJECT_NAME":"ATLAS 5 CENTAUR DEB","OBJECT_ID":"2018-079DB","EPOCH":"2026-04-04T00:13:29.885088","MEAN_MOTION":1.71841127,"ECCENTRICITY":0.47631302,"INCLINATION":12.3311,"RA_OF_ASC_NODE":69.1829,"ARG_OF_PERICENTER":255.1287,"MEAN_ANOMALY":49.2001,"EPHEMERIS_TYPE":0,"CLASSIFICATION_TYPE":"U","NORAD_CAT_ID":46846,"ELEMENT_SET_NO":999,"REV_AT_EPOCH":3402,"BSTAR":0,"MEAN_MOTION_DOT":-1.07e-6,"MEAN_MOTION_DDOT":0},{"OBJECT_NAME":"ATLAS 5 CENTAUR DEB","OBJECT_ID":"2018-079DC","EPOCH":"2026-03-28T21:16:43.919616","MEAN_MOTION":1.77285452,"ECCENTRICITY":0.47077472,"INCLINATION":13.4861,"RA_OF_ASC_NODE":48.3172,"ARG_OF_PERICENTER":282.7129,"MEAN_ANOMALY":30.2832,"EPHEMERIS_TYPE":0,"CLASSIFICATION_TYPE":"U","NORAD_CAT_ID":46847,"ELEMENT_SET_NO":999,"REV_AT_EPOCH":3501,"BSTAR":0,"MEAN_MOTION_DOT":-1.32e-6,"MEAN_MOTION_DDOT":0},{"OBJECT_NAME":"ATLAS 5 CENTAUR DEB","OBJECT_ID":"2018-079DN","EPOCH":"2026-04-04T05:01:25.415616","MEAN_MOTION":1.69095598,"ECCENTRICITY":0.4639593,"INCLINATION":12.4914,"RA_OF_ASC_NODE":79.6004,"ARG_OF_PERICENTER":225.7579,"MEAN_ANOMALY":85.3869,"EPHEMERIS_TYPE":0,"CLASSIFICATION_TYPE":"U","NORAD_CAT_ID":46857,"ELEMENT_SET_NO":999,"REV_AT_EPOCH":3347,"BSTAR":0,"MEAN_MOTION_DOT":-8.5e-7,"MEAN_MOTION_DDOT":0},{"OBJECT_NAME":"TIANTONG-1 2","OBJECT_ID":"2020-082A","EPOCH":"2026-04-05T20:11:02.443200","MEAN_MOTION":1.00274067,"ECCENTRICITY":0.0002672,"INCLINATION":0.8969,"RA_OF_ASC_NODE":318.2386,"ARG_OF_PERICENTER":55.2319,"MEAN_ANOMALY":248.3866,"EPHEMERIS_TYPE":0,"CLASSIFICATION_TYPE":"U","NORAD_CAT_ID":46916,"ELEMENT_SET_NO":999,"REV_AT_EPOCH":1992,"BSTAR":0,"MEAN_MOTION_DOT":-3.54e-6,"MEAN_MOTION_DDOT":0},{"OBJECT_NAME":"ATLAS 5 CENTAUR DEB","OBJECT_ID":"2014-055DE","EPOCH":"2026-03-27T06:30:20.311488","MEAN_MOTION":1.79154227,"ECCENTRICITY":0.4879245,"INCLINATION":19.2862,"RA_OF_ASC_NODE":174.2531,"ARG_OF_PERICENTER":111.0112,"MEAN_ANOMALY":306.5571,"EPHEMERIS_TYPE":0,"CLASSIFICATION_TYPE":"U","NORAD_CAT_ID":47096,"ELEMENT_SET_NO":999,"REV_AT_EPOCH":3565,"BSTAR":0,"MEAN_MOTION_DOT":-1.4e-7,"MEAN_MOTION_DDOT":0},{"OBJECT_NAME":"LUCAS (JDRS-1)","OBJECT_ID":"2020-089A","EPOCH":"2026-04-05T21:12:21.579840","MEAN_MOTION":1.00272248,"ECCENTRICITY":0.0002696,"INCLINATION":0.0262,"RA_OF_ASC_NODE":266.7025,"ARG_OF_PERICENTER":106.044,"MEAN_ANOMALY":230.3043,"EPHEMERIS_TYPE":0,"CLASSIFICATION_TYPE":"U","NORAD_CAT_ID":47202,"ELEMENT_SET_NO":999,"REV_AT_EPOCH":1969,"BSTAR":0,"MEAN_MOTION_DOT":-2.34e-6,"MEAN_MOTION_DDOT":0},{"OBJECT_NAME":"SXM-7","OBJECT_ID":"2020-096A","EPOCH":"2026-04-05T14:03:06.070752","MEAN_MOTION":1.00268657,"ECCENTRICITY":0.0004599,"INCLINATION":0.0236,"RA_OF_ASC_NODE":124.6334,"ARG_OF_PERICENTER":358.624,"MEAN_ANOMALY":196.2405,"EPHEMERIS_TYPE":0,"CLASSIFICATION_TYPE":"U","NORAD_CAT_ID":47240,"ELEMENT_SET_NO":999,"REV_AT_EPOCH":671,"BSTAR":0,"MEAN_MOTION_DOT":-2.03e-6,"MEAN_MOTION_DDOT":0},{"OBJECT_NAME":"BREEZE-M DEB [TANK]","OBJECT_ID":"2020-097B","EPOCH":"2026-04-05T02:30:53.675424","MEAN_MOTION":2.20480257,"ECCENTRICITY":0.73060356,"INCLINATION":58.2956,"RA_OF_ASC_NODE":123.3417,"ARG_OF_PERICENTER":105.7707,"MEAN_ANOMALY":339.3382,"EPHEMERIS_TYPE":0,"CLASSIFICATION_TYPE":"U","NORAD_CAT_ID":47243,"ELEMENT_SET_NO":999,"REV_AT_EPOCH":4259,"BSTAR":0.0013005234,"MEAN_MOTION_DOT":1.148e-5,"MEAN_MOTION_DDOT":0},{"OBJECT_NAME":"CMS-01","OBJECT_ID":"2020-099A","EPOCH":"2026-04-05T21:12:21.579840","MEAN_MOTION":1.0027259,"ECCENTRICITY":0.0005264,"INCLINATION":0.1018,"RA_OF_ASC_NODE":90.9946,"ARG_OF_PERICENTER":203.8873,"MEAN_ANOMALY":300.3755,"EPHEMERIS_TYPE":0,"CLASSIFICATION_TYPE":"U","NORAD_CAT_ID":47256,"ELEMENT_SET_NO":999,"REV_AT_EPOCH":1947,"BSTAR":0,"MEAN_MOTION_DOT":-1.63e-6,"MEAN_MOTION_DDOT":0},{"OBJECT_NAME":"TURKSAT 5A","OBJECT_ID":"2021-001A","EPOCH":"2026-04-05T19:44:18.437568","MEAN_MOTION":1.0027108,"ECCENTRICITY":1.53e-5,"INCLINATION":0.0179,"RA_OF_ASC_NODE":156.8384,"ARG_OF_PERICENTER":285.0681,"MEAN_ANOMALY":79.2,"EPHEMERIS_TYPE":0,"CLASSIFICATION_TYPE":"U","NORAD_CAT_ID":47306,"ELEMENT_SET_NO":999,"REV_AT_EPOCH":1924,"BSTAR":0,"MEAN_MOTION_DOT":1.56e-6,"MEAN_MOTION_DDOT":0},{"OBJECT_NAME":"FALCON 9 R/B","OBJECT_ID":"2021-001B","EPOCH":"2026-04-01T15:46:39.950976","MEAN_MOTION":1.65166556,"ECCENTRICITY":0.77798611,"INCLINATION":15.8647,"RA_OF_ASC_NODE":209.1725,"ARG_OF_PERICENTER":353.5023,"MEAN_ANOMALY":0.3362,"EPHEMERIS_TYPE":0,"CLASSIFICATION_TYPE":"U","NORAD_CAT_ID":47307,"ELEMENT_SET_NO":999,"REV_AT_EPOCH":2889,"BSTAR":0.002417727,"MEAN_MOTION_DOT":9.55e-6,"MEAN_MOTION_DDOT":0},{"OBJECT_NAME":"TIANTONG-1 3","OBJECT_ID":"2021-003A","EPOCH":"2026-04-05T21:12:21.580704","MEAN_MOTION":1.0027374,"ECCENTRICITY":0.0003289,"INCLINATION":1.8202,"RA_OF_ASC_NODE":334.9682,"ARG_OF_PERICENTER":44.5597,"MEAN_ANOMALY":214.2627,"EPHEMERIS_TYPE":0,"CLASSIFICATION_TYPE":"U","NORAD_CAT_ID":47321,"ELEMENT_SET_NO":999,"REV_AT_EPOCH":1923,"BSTAR":0,"MEAN_MOTION_DOT":-1.54e-6,"MEAN_MOTION_DDOT":0},{"OBJECT_NAME":"TJS-6","OBJECT_ID":"2021-010A","EPOCH":"2026-04-05T20:26:23.472384","MEAN_MOTION":1.00274456,"ECCENTRICITY":0.0003532,"INCLINATION":0.4138,"RA_OF_ASC_NODE":89.1206,"ARG_OF_PERICENTER":306.1945,"MEAN_ANOMALY":283.9295,"EPHEMERIS_TYPE":0,"CLASSIFICATION_TYPE":"U","NORAD_CAT_ID":47613,"ELEMENT_SET_NO":999,"REV_AT_EPOCH":1908,"BSTAR":0,"MEAN_MOTION_DOT":4.5e-7,"MEAN_MOTION_DDOT":0},{"OBJECT_NAME":"ARKTIKA-M 1","OBJECT_ID":"2021-016A","EPOCH":"2026-03-27T05:55:38.244288","MEAN_MOTION":2.00616454,"ECCENTRICITY":0.7253959,"INCLINATION":63.2179,"RA_OF_ASC_NODE":69.3783,"ARG_OF_PERICENTER":269.5617,"MEAN_ANOMALY":15.0995,"EPHEMERIS_TYPE":0,"CLASSIFICATION_TYPE":"U","NORAD_CAT_ID":47719,"ELEMENT_SET_NO":999,"REV_AT_EPOCH":3714,"BSTAR":0,"MEAN_MOTION_DOT":-9.8e-7,"MEAN_MOTION_DDOT":0},{"OBJECT_NAME":"FREGAT R/B","OBJECT_ID":"2021-016B","EPOCH":"2026-03-27T01:02:52.547136","MEAN_MOTION":1.98933595,"ECCENTRICITY":0.73761454,"INCLINATION":63.231,"RA_OF_ASC_NODE":62.0599,"ARG_OF_PERICENTER":267.2526,"MEAN_ANOMALY":14.8955,"EPHEMERIS_TYPE":0,"CLASSIFICATION_TYPE":"U","NORAD_CAT_ID":47720,"ELEMENT_SET_NO":999,"REV_AT_EPOCH":3680,"BSTAR":0,"MEAN_MOTION_DOT":1.495e-5,"MEAN_MOTION_DDOT":0}]
